{
  "type": "FeatureCollection",
  "features": [
    {
      "type": "Feature",
      "properties": {
        "norad_id": 41866,
        "name": "GOES 16",
        "group": "weather",
        "lat": -0.04022492996976154,
        "lon": 40.0337972025494,
        "alt_km": 35794.95962939338,
        "timestamp": "2025-12-20T03:42:47.035477+00:00",
        "meta_object_name": "GOES 16",
        "meta_object_id": "2016-071A",
        "meta_epoch": "2025-12-19T16:11:23.254080",
        "meta_mean_motion": 1.00272202,
        "meta_eccentricity": 0.0003019,
        "meta_inclination": 0.073,
        "meta_ra_of_asc_node": 103.1255,
        "meta_arg_of_pericenter": 162.2731,
        "meta_mean_anomaly": 321.2972,
        "meta_ephemeris_type": 0,
        "meta_classification_type": "U",
        "meta_norad_cat_id": 41866,
        "meta_element_set_no": 999,
        "meta_rev_at_epoch": 3330,
        "meta_bstar": 0,
        "meta_mean_motion_dot": -6.7e-07,
        "meta_mean_motion_ddot": 0,
        "tle_line1": "1 41866U 16071A   25353.67457470 -.00000067  00000+0  00000+0 0  9990",
        "tle_line2": "2 41866   0.0730 103.1255 0003019 162.2731 321.2972  1.00272202 33300"
      },
      "geometry": {
        "type": "Point",
        "coordinates": [
          40.0337972025494,
          -0.04022492996976154
        ]
      }
    },
    {
      "type": "Feature",
      "properties": {
        "norad_id": 41882,
        "name": "FENGYUN 4A",
        "group": "weather",
        "lat": -0.22713689349193456,
        "lon": -91.54995076382909,
        "alt_km": 35773.73565712576,
        "timestamp": "2025-12-20T03:42:47.035489+00:00",
        "meta_object_name": "FENGYUN 4A",
        "meta_object_id": "2016-077A",
        "meta_epoch": "2025-12-19T13:51:06.687072",
        "meta_mean_motion": 1.00266581,
        "meta_eccentricity": 0.0004506,
        "meta_inclination": 1.866,
        "meta_ra_of_asc_node": 82.3247,
        "meta_arg_of_pericenter": 142.8816,
        "meta_mean_anomaly": 194.7423,
        "meta_ephemeris_type": 0,
        "meta_classification_type": "U",
        "meta_norad_cat_id": 41882,
        "meta_element_set_no": 999,
        "meta_rev_at_epoch": 3312,
        "meta_bstar": 0,
        "meta_mean_motion_dot": -3.34e-06,
        "meta_mean_motion_ddot": 0,
        "tle_line1": "1 41882U 16077A   25353.57716073 -.00000334  00000+0  00000+0 0  9997",
        "tle_line2": "2 41882   1.8660  82.3247 0004506 142.8816 194.7423  1.00266581 33125"
      },
      "geometry": {
        "type": "Point",
        "coordinates": [
          -91.54995076382909,
          -0.22713689349193456
        ]
      }
    },
    {
      "type": "Feature",
      "properties": {
        "norad_id": 41884,
        "name": "CYGFM05",
        "group": "weather",
        "lat": -6.753909170782074,
        "lon": -11.073021113803085,
        "alt_km": 423.76274164592996,
        "timestamp": "2025-12-20T03:42:47.035500+00:00",
        "meta_object_name": "CYGFM05",
        "meta_object_id": "2016-078A",
        "meta_epoch": "2025-12-19T09:11:21.636384",
        "meta_mean_motion": 15.47871855,
        "meta_eccentricity": 0.0010737,
        "meta_inclination": 34.9606,
        "meta_ra_of_asc_node": 3.7291,
        "meta_arg_of_pericenter": 241.806,
        "meta_mean_anomaly": 118.1577,
        "meta_ephemeris_type": 0,
        "meta_classification_type": "U",
        "meta_norad_cat_id": 41884,
        "meta_element_set_no": 999,
        "meta_rev_at_epoch": 50079,
        "meta_bstar": 0.00028094,
        "meta_mean_motion_dot": 0.00015083,
        "meta_mean_motion_ddot": 0,
        "tle_line1": "1 41884U 16078A   25353.38288931  .00015083  00000+0  28094-3 0  9999",
        "tle_line2": "2 41884  34.9606   3.7291 0010737 241.8060 118.1577 15.47871855500798"
      },
      "geometry": {
        "type": "Point",
        "coordinates": [
          -11.073021113803085,
          -6.753909170782074
        ]
      }
    },
    {
      "type": "Feature",
      "properties": {
        "norad_id": 41885,
        "name": "CYGFM04",
        "group": "weather",
        "lat": -29.39053454824794,
        "lon": -80.54831969198328,
        "alt_km": 410.66609190047984,
        "timestamp": "2025-12-20T03:42:47.035511+00:00",
        "meta_object_name": "CYGFM04",
        "meta_object_id": "2016-078B",
        "meta_epoch": "2025-12-19T07:52:46.453152",
        "meta_mean_motion": 15.50627093,
        "meta_eccentricity": 0.0009761,
        "meta_inclination": 34.9358,
        "meta_ra_of_asc_node": 338.6707,
        "meta_arg_of_pericenter": 266.492,
        "meta_mean_anomaly": 93.4686,
        "meta_ephemeris_type": 0,
        "meta_classification_type": "U",
        "meta_norad_cat_id": 41885,
        "meta_element_set_no": 999,
        "meta_rev_at_epoch": 50096,
        "meta_bstar": 0.0003093,
        "meta_mean_motion_dot": 0.00018314,
        "meta_mean_motion_ddot": 0,
        "tle_line1": "1 41885U 16078B   25353.32831543  .00018314  00000+0  30930-3 0  9999",
        "tle_line2": "2 41885  34.9358 338.6707 0009761 266.4920  93.4686 15.50627093500960"
      },
      "geometry": {
        "type": "Point",
        "coordinates": [
          -80.54831969198328,
          -29.39053454824794
        ]
      }
    },
    {
      "type": "Feature",
      "properties": {
        "norad_id": 41886,
        "name": "CYGFM02",
        "group": "weather",
        "lat": -4.966753685630101,
        "lon": -35.673250195218294,
        "alt_km": 408.46500881048905,
        "timestamp": "2025-12-20T03:42:47.035522+00:00",
        "meta_object_name": "CYGFM02",
        "meta_object_id": "2016-078C",
        "meta_epoch": "2025-12-19T09:13:31.944000",
        "meta_mean_motion": 15.52029516,
        "meta_eccentricity": 0.0011406,
        "meta_inclination": 34.9446,
        "meta_ra_of_asc_node": 336.5423,
        "meta_arg_of_pericenter": 267.1971,
        "meta_mean_anomaly": 92.7446,
        "meta_ephemeris_type": 0,
        "meta_classification_type": "U",
        "meta_norad_cat_id": 41886,
        "meta_element_set_no": 999,
        "meta_rev_at_epoch": 50110,
        "meta_bstar": 0.0002974,
        "meta_mean_motion_dot": 0.00018531,
        "meta_mean_motion_ddot": 0,
        "tle_line1": "1 41886U 16078C   25353.38439750  .00018531  00000+0  29740-3 0  9998",
        "tle_line2": "2 41886  34.9446 336.5423 0011406 267.1971  92.7446 15.52029516501105"
      },
      "geometry": {
        "type": "Point",
        "coordinates": [
          -35.673250195218294,
          -4.966753685630101
        ]
      }
    },
    {
      "type": "Feature",
      "properties": {
        "norad_id": 41887,
        "name": "CYGFM01",
        "group": "weather",
        "lat": 25.169057031271592,
        "lon": 43.28025262325922,
        "alt_km": 423.15339596254034,
        "timestamp": "2025-12-20T03:42:47.035533+00:00",
        "meta_object_name": "CYGFM01",
        "meta_object_id": "2016-078D",
        "meta_epoch": "2025-12-19T10:29:10.828032",
        "meta_mean_motion": 15.48460328,
        "meta_eccentricity": 0.0010407,
        "meta_inclination": 34.9437,
        "meta_ra_of_asc_node": 5.6782,
        "meta_arg_of_pericenter": 234.9387,
        "meta_mean_anomaly": 125.0359,
        "meta_ephemeris_type": 0,
        "meta_classification_type": "U",
        "meta_norad_cat_id": 41887,
        "meta_element_set_no": 999,
        "meta_rev_at_epoch": 50074,
        "meta_bstar": 0.00029609,
        "meta_mean_motion_dot": 0.00016232,
        "meta_mean_motion_ddot": 0,
        "tle_line1": "1 41887U 16078D   25353.43693088  .00016232  00000+0  29609-3 0  9991",
        "tle_line2": "2 41887  34.9437   5.6782 0010407 234.9387 125.0359 15.48460328500748"
      },
      "geometry": {
        "type": "Point",
        "coordinates": [
          43.28025262325922,
          25.169057031271592
        ]
      }
    },
    {
      "type": "Feature",
      "properties": {
        "norad_id": 41888,
        "name": "CYGFM08",
        "group": "weather",
        "lat": 26.467367746774624,
        "lon": 118.41184428023412,
        "alt_km": 418.25913882286204,
        "timestamp": "2025-12-20T03:42:47.035545+00:00",
        "meta_object_name": "CYGFM08",
        "meta_object_id": "2016-078E",
        "meta_epoch": "2025-12-19T16:20:11.529600",
        "meta_mean_motion": 15.4969152,
        "meta_eccentricity": 0.001198,
        "meta_inclination": 34.9468,
        "meta_ra_of_asc_node": 346.9937,
        "meta_arg_of_pericenter": 259.5157,
        "meta_mean_anomaly": 100.4216,
        "meta_ephemeris_type": 0,
        "meta_classification_type": "U",
        "meta_norad_cat_id": 41888,
        "meta_element_set_no": 999,
        "meta_rev_at_epoch": 50101,
        "meta_bstar": 0.00028607,
        "meta_mean_motion_dot": 0.00016391,
        "meta_mean_motion_ddot": 0,
        "tle_line1": "1 41888U 16078E   25353.68068900  .00016391  00000+0  28607-3 0  9991",
        "tle_line2": "2 41888  34.9468 346.9937 0011980 259.5157 100.4216 15.49691520501012"
      },
      "geometry": {
        "type": "Point",
        "coordinates": [
          118.41184428023412,
          26.467367746774624
        ]
      }
    }
  ]
}